STARLINK-35930          
1 66599U 25270M   25342.58335648 -.01965044  00000+0 -26958-1 0  9990
2 66599  42.9990 217.0789 0001324 255.1991 288.3523 15.59927775  3737
STARLINK-35980          
1 66600U 25270N   25342.58335648 -.01965087  00000+0 -26960-1 0  9993
2 66600  42.9990 217.0740 0001314 253.0530 292.4164 15.59927233  3637
STARLINK-35978          
1 66601U 25270P   25342.58335648 -.01961504  00000+0 -26908-1 0  9996
2 66601  42.9991 217.0692 0001266 254.0295 293.3593 15.59924085  3571
STARLINK-36050          
1 66602U 25270Q   25342.58335648 -.01967097  00000+0 -26990-1 0  9991
2 66602  42.9991 217.0640 0001300 255.2804 294.0237 15.59928389  3634
STARLINK-36048          
1 66603U 25270R   25342.58335648 -.01967768  00000+0 -27001-1 0  9991
2 66603  42.9991 217.0588 0001351 254.2281 296.9950 15.59927545  3636
STARLINK-35977          
1 66604U 25270S   25342.58335648 -.01966248  00000+0 -26978-1 0  9996
2 66604  42.9990 217.0538 0001359 250.5218 302.6178 15.59926698  3734
STARLINK-36052          
1 66605U 25270T   25342.58335648 -.01968214  00000+0 -27008-1 0  9997
2 66605  42.9990 217.0496 0001334 255.4947 299.5631 15.59927572  3734
STARLINK-36063          
1 66606U 25270U   25342.58335648 -.01965854  00000+0 -26972-1 0  9994
2 66606  42.9992 217.0394 0001370 249.1845 309.7064 15.59926338  3734
STARLINK-35993          
1 66607U 25270V   25342.58335648 -.01970609  00000+0 -27044-1 0  9990
2 66607  42.9992 217.0452 0001303 253.2835 303.6913 15.59928945  3632
STARLINK-36036          
1 66608U 25270W   25342.58335648 -.01966813  00000+0 -26986-1 0  9997
2 66608  42.9993 217.0349 0001382 249.3650 311.4430 15.59926947  3571
STARLINK-36034          
1 66609U 25270X   25342.58335648 -.01961522  00000+0 -26908-1 0  9994
2 66609  42.9994 217.0310 0001317 251.6907 311.0353 15.59923829  3576
STARLINK-35680          
1 66610U 25270Y   25342.58335648 -.01947756  00000+0 -26709-1 0  9998
2 66610  42.9991 217.0258 0001283 261.5083 303.1479 15.59909090  3848
