CCSDS_OMM_VERS = 2.0
CREATION_DATE  = 
ORIGINATOR     = 

OBJECT_NAME    = STARLINK-35930
OBJECT_ID      = 2025-270M
CENTER_NAME    = EARTH
REF_FRAME      = TEME
TIME_SYSTEM    = UTC
MEAN_ELEMENT_THEORY = SGP/SGP4

EPOCH          = 2025-12-08T14:00:01.999872
MEAN_MOTION    = 15.59927775
ECCENTRICITY   = .00013247
INCLINATION    = 42.9990
RA_OF_ASC_NODE = 217.0789
ARG_OF_PERICENTER = 255.1991
MEAN_ANOMALY   = 288.3523

EPHEMERIS_TYPE = 0
CLASSIFICATION_TYPE = U
NORAD_CAT_ID   = 66599
ELEMENT_SET_NO = 999
REV_AT_EPOCH   = 373
BSTAR          = -.26958487E-1
MEAN_MOTION_DOT = -.1965044E-1
MEAN_MOTION_DDOT = 0

CCSDS_OMM_VERS = 2.0
CREATION_DATE  = 
ORIGINATOR     = 

OBJECT_NAME    = STARLINK-35980
OBJECT_ID      = 2025-270N
CENTER_NAME    = EARTH
REF_FRAME      = TEME
TIME_SYSTEM    = UTC
MEAN_ELEMENT_THEORY = SGP/SGP4

EPOCH          = 2025-12-08T14:00:01.999872
MEAN_MOTION    = 15.59927233
ECCENTRICITY   = .00013148
INCLINATION    = 42.9990
RA_OF_ASC_NODE = 217.0740
ARG_OF_PERICENTER = 253.0530
MEAN_ANOMALY   = 292.4164

EPHEMERIS_TYPE = 0
CLASSIFICATION_TYPE = U
NORAD_CAT_ID   = 66600
ELEMENT_SET_NO = 999
REV_AT_EPOCH   = 363
BSTAR          = -.26959823E-1
MEAN_MOTION_DOT = -.1965087E-1
MEAN_MOTION_DDOT = 0

CCSDS_OMM_VERS = 2.0
CREATION_DATE  = 
ORIGINATOR     = 

OBJECT_NAME    = STARLINK-35978
OBJECT_ID      = 2025-270P
CENTER_NAME    = EARTH
REF_FRAME      = TEME
TIME_SYSTEM    = UTC
MEAN_ELEMENT_THEORY = SGP/SGP4

EPOCH          = 2025-12-08T14:00:01.999872
MEAN_MOTION    = 15.59924085
ECCENTRICITY   = .00012664
INCLINATION    = 42.9991
RA_OF_ASC_NODE = 217.0692
ARG_OF_PERICENTER = 254.0295
MEAN_ANOMALY   = 293.3593

EPHEMERIS_TYPE = 0
CLASSIFICATION_TYPE = U
NORAD_CAT_ID   = 66601
ELEMENT_SET_NO = 999
REV_AT_EPOCH   = 357
BSTAR          = -.26907672E-1
MEAN_MOTION_DOT = -.1961504E-1
MEAN_MOTION_DDOT = 0

CCSDS_OMM_VERS = 2.0
CREATION_DATE  = 
ORIGINATOR     = 

OBJECT_NAME    = STARLINK-36050
OBJECT_ID      = 2025-270Q
CENTER_NAME    = EARTH
REF_FRAME      = TEME
TIME_SYSTEM    = UTC
MEAN_ELEMENT_THEORY = SGP/SGP4

EPOCH          = 2025-12-08T14:00:01.999872
MEAN_MOTION    = 15.59928389
ECCENTRICITY   = .00013006
INCLINATION    = 42.9991
RA_OF_ASC_NODE = 217.0640
ARG_OF_PERICENTER = 255.2804
MEAN_ANOMALY   = 294.0237

EPHEMERIS_TYPE = 0
CLASSIFICATION_TYPE = U
NORAD_CAT_ID   = 66602
ELEMENT_SET_NO = 999
REV_AT_EPOCH   = 363
BSTAR          = -.26990183E-1
MEAN_MOTION_DOT = -.1967097E-1
MEAN_MOTION_DDOT = 0

CCSDS_OMM_VERS = 2.0
CREATION_DATE  = 
ORIGINATOR     = 

OBJECT_NAME    = STARLINK-36048
OBJECT_ID      = 2025-270R
CENTER_NAME    = EARTH
REF_FRAME      = TEME
TIME_SYSTEM    = UTC
MEAN_ELEMENT_THEORY = SGP/SGP4

EPOCH          = 2025-12-08T14:00:01.999872
MEAN_MOTION    = 15.59927545
ECCENTRICITY   = .00013516
INCLINATION    = 42.9991
RA_OF_ASC_NODE = 217.0588
ARG_OF_PERICENTER = 254.2281
MEAN_ANOMALY   = 296.9950

EPHEMERIS_TYPE = 0
CLASSIFICATION_TYPE = U
NORAD_CAT_ID   = 66603
ELEMENT_SET_NO = 999
REV_AT_EPOCH   = 363
BSTAR          = -.27000991E-1
MEAN_MOTION_DOT = -.1967768E-1
MEAN_MOTION_DDOT = 0

CCSDS_OMM_VERS = 2.0
CREATION_DATE  = 
ORIGINATOR     = 

OBJECT_NAME    = STARLINK-35977
OBJECT_ID      = 2025-270S
CENTER_NAME    = EARTH
REF_FRAME      = TEME
TIME_SYSTEM    = UTC
MEAN_ELEMENT_THEORY = SGP/SGP4

EPOCH          = 2025-12-08T14:00:01.999872
MEAN_MOTION    = 15.59926698
ECCENTRICITY   = .00013591
INCLINATION    = 42.9990
RA_OF_ASC_NODE = 217.0538
ARG_OF_PERICENTER = 250.5218
MEAN_ANOMALY   = 302.6178

EPHEMERIS_TYPE = 0
CLASSIFICATION_TYPE = U
NORAD_CAT_ID   = 66604
ELEMENT_SET_NO = 999
REV_AT_EPOCH   = 373
BSTAR          = -.26978032E-1
MEAN_MOTION_DOT = -.1966248E-1
MEAN_MOTION_DDOT = 0

CCSDS_OMM_VERS = 2.0
CREATION_DATE  = 
ORIGINATOR     = 

OBJECT_NAME    = STARLINK-36052
OBJECT_ID      = 2025-270T
CENTER_NAME    = EARTH
REF_FRAME      = TEME
TIME_SYSTEM    = UTC
MEAN_ELEMENT_THEORY = SGP/SGP4

EPOCH          = 2025-12-08T14:00:01.999872
MEAN_MOTION    = 15.59927572
ECCENTRICITY   = .00013345
INCLINATION    = 42.9990
RA_OF_ASC_NODE = 217.0496
ARG_OF_PERICENTER = 255.4947
MEAN_ANOMALY   = 299.5631

EPHEMERIS_TYPE = 0
CLASSIFICATION_TYPE = U
NORAD_CAT_ID   = 66605
ELEMENT_SET_NO = 999
REV_AT_EPOCH   = 373
BSTAR          = -.27008114E-1
MEAN_MOTION_DOT = -.1968214E-1
MEAN_MOTION_DDOT = 0

CCSDS_OMM_VERS = 2.0
CREATION_DATE  = 
ORIGINATOR     = 

OBJECT_NAME    = STARLINK-36063
OBJECT_ID      = 2025-270U
CENTER_NAME    = EARTH
REF_FRAME      = TEME
TIME_SYSTEM    = UTC
MEAN_ELEMENT_THEORY = SGP/SGP4

EPOCH          = 2025-12-08T14:00:01.999872
MEAN_MOTION    = 15.59926338
ECCENTRICITY   = .00013701
INCLINATION    = 42.9992
RA_OF_ASC_NODE = 217.0394
ARG_OF_PERICENTER = 249.1845
MEAN_ANOMALY   = 309.7064

EPHEMERIS_TYPE = 0
CLASSIFICATION_TYPE = U
NORAD_CAT_ID   = 66606
ELEMENT_SET_NO = 999
REV_AT_EPOCH   = 373
BSTAR          = -.26972144E-1
MEAN_MOTION_DOT = -.1965854E-1
MEAN_MOTION_DDOT = 0

CCSDS_OMM_VERS = 2.0
CREATION_DATE  = 
ORIGINATOR     = 

OBJECT_NAME    = STARLINK-35993
OBJECT_ID      = 2025-270V
CENTER_NAME    = EARTH
REF_FRAME      = TEME
TIME_SYSTEM    = UTC
MEAN_ELEMENT_THEORY = SGP/SGP4

EPOCH          = 2025-12-08T14:00:01.999872
MEAN_MOTION    = 15.59928945
ECCENTRICITY   = .00013037
INCLINATION    = 42.9992
RA_OF_ASC_NODE = 217.0452
ARG_OF_PERICENTER = 253.2835
MEAN_ANOMALY   = 303.6913

EPHEMERIS_TYPE = 0
CLASSIFICATION_TYPE = U
NORAD_CAT_ID   = 66607
ELEMENT_SET_NO = 999
REV_AT_EPOCH   = 363
BSTAR          = -.27044467E-1
MEAN_MOTION_DOT = -.1970609E-1
MEAN_MOTION_DDOT = 0

CCSDS_OMM_VERS = 2.0
CREATION_DATE  = 
ORIGINATOR     = 

OBJECT_NAME    = STARLINK-36036
OBJECT_ID      = 2025-270W
CENTER_NAME    = EARTH
REF_FRAME      = TEME
TIME_SYSTEM    = UTC
MEAN_ELEMENT_THEORY = SGP/SGP4

EPOCH          = 2025-12-08T14:00:01.999872
MEAN_MOTION    = 15.59926947
ECCENTRICITY   = .00013825
INCLINATION    = 42.9993
RA_OF_ASC_NODE = 217.0349
ARG_OF_PERICENTER = 249.3650
MEAN_ANOMALY   = 311.4430

EPHEMERIS_TYPE = 0
CLASSIFICATION_TYPE = U
NORAD_CAT_ID   = 66608
ELEMENT_SET_NO = 999
REV_AT_EPOCH   = 357
BSTAR          = -.26986349E-1
MEAN_MOTION_DOT = -.1966813E-1
MEAN_MOTION_DDOT = 0

CCSDS_OMM_VERS = 2.0
CREATION_DATE  = 
ORIGINATOR     = 

OBJECT_NAME    = STARLINK-36034
OBJECT_ID      = 2025-270X
CENTER_NAME    = EARTH
REF_FRAME      = TEME
TIME_SYSTEM    = UTC
MEAN_ELEMENT_THEORY = SGP/SGP4

EPOCH          = 2025-12-08T14:00:01.999872
MEAN_MOTION    = 15.59923829
ECCENTRICITY   = .00013177
INCLINATION    = 42.9994
RA_OF_ASC_NODE = 217.0310
ARG_OF_PERICENTER = 251.6907
MEAN_ANOMALY   = 311.0353

EPHEMERIS_TYPE = 0
CLASSIFICATION_TYPE = U
NORAD_CAT_ID   = 66609
ELEMENT_SET_NO = 999
REV_AT_EPOCH   = 357
BSTAR          = -.26907669E-1
MEAN_MOTION_DOT = -.1961522E-1
MEAN_MOTION_DDOT = 0

CCSDS_OMM_VERS = 2.0
CREATION_DATE  = 
ORIGINATOR     = 

OBJECT_NAME    = STARLINK-35680
OBJECT_ID      = 2025-270Y
CENTER_NAME    = EARTH
REF_FRAME      = TEME
TIME_SYSTEM    = UTC
MEAN_ELEMENT_THEORY = SGP/SGP4

EPOCH          = 2025-12-08T14:00:01.999872
MEAN_MOTION    = 15.59909090
ECCENTRICITY   = .00012837
INCLINATION    = 42.9991
RA_OF_ASC_NODE = 217.0258
ARG_OF_PERICENTER = 261.5083
MEAN_ANOMALY   = 303.1479

EPHEMERIS_TYPE = 0
CLASSIFICATION_TYPE = U
NORAD_CAT_ID   = 66610
ELEMENT_SET_NO = 999
REV_AT_EPOCH   = 384
BSTAR          = -.26708531E-1
MEAN_MOTION_DOT = -.1947756E-1
MEAN_MOTION_DDOT = 0

